{"type": "FeatureCollection", "features": [ {"type": "Feature", "properties": {"norad_id": 66869, "name": "STARLINK-36092", "group": "last-30-days", "lat": 11.317324482957192, "lon": 52.31159739542089, "alt_km": 413.94189145214386, "timestamp": "2025-12-26T08:37:53.292291+00:00", "meta": {"OBJECT_NAME": "STARLINK-36092", "OBJECT_ID": "2025-281X", "EPOCH": "2025-12-26T04:00:01.998720", "MEAN_MOTION": 15.50484813, "ECCENTRICITY": 0.0001251, "INCLINATION": 43.0001, "RA_OF_ASC_NODE": 41.0383, "ARG_OF_PERICENTER": 246.6493, "MEAN_ANOMALY": 131.8252, "EPHEMERIS_TYPE": 0, "CLASSIFICATION_TYPE": "U", "NORAD_CAT_ID": 66869, "ELEMENT_SET_NO": 999, "REV_AT_EPOCH": 357, "BSTAR": 0.0011985, "MEAN_MOTION_DOT": 0.00070364, "MEAN_MOTION_DDOT": 0}, "tle": {"line1": "1 66869U 25281X   25360.16668980  .00070364  00000+0  11985-2 0  9998", "line2": "2 66869  43.0001  41.0383 0001251 246.6493 131.8252 15.50484813  3573"}}, "geometry": {"type": "Point", "coordinates": [52.31159739542089, 11.317324482957192]}}, {"type": "Feature", "properties": {"norad_id": 66870, "name": "STARLINK-36114", "group": "last-30-days", "lat": 12.585051915043557, "lon": 53.766167568002956, "alt_km": 413.7870892192577, "timestamp": "2025-12-26T08:37:53.292303+00:00", "meta": {"OBJECT_NAME": "STARLINK-36114", "OBJECT_ID": "2025-281Y", "EPOCH": "2025-12-26T04:00:01.998720", "MEAN_MOTION": 15.50484388, "ECCENTRICITY": 0.0001177, "INCLINATION": 43.0003, "RA_OF_ASC_NODE": 41.0333, "ARG_OF_PERICENTER": 241.7127, "MEAN_ANOMALY": 138.6718, "EPHEMERIS_TYPE": 0, "CLASSIFICATION_TYPE": "U", "NORAD_CAT_ID": 66870, "ELEMENT_SET_NO": 999, "REV_AT_EPOCH": 344, "BSTAR": 0.0012566, "MEAN_MOTION_DOT": 0.00073823, "MEAN_MOTION_DDOT": 0}, "tle": {"line1": "1 66870U 25281Y   25360.16668980  .00073823  00000+0  12566-2 0  9999", "line2": "2 66870  43.0003  41.0333 0001177 241.7127 138.6718 15.50484388  3444"}}, "geometry": {"type": "Point", "coordinates": [53.766167568002956, 12.585051915043557]}}, {"type": "Feature", "properties": {"norad_id": 66871, "name": "STARLINK-36095", "group": "last-30-days", "lat": 13.85418121991459, "lon": 55.24619767064618, "alt_km": 413.56754051581174, "timestamp": "2025-12-26T08:37:53.292313+00:00", "meta": {"OBJECT_NAME": "STARLINK-36095", "OBJECT_ID": "2025-281Z", "EPOCH": "2025-12-26T04:00:01.998720", "MEAN_MOTION": 15.50489077, "ECCENTRICITY": 0.0001032, "INCLINATION": 43.0002, "RA_OF_ASC_NODE": 41.0281, "ARG_OF_PERICENTER": 237.2021, "MEAN_ANOMALY": 145.1047, "EPHEMERIS_TYPE": 0, "CLASSIFICATION_TYPE": "U", "NORAD_CAT_ID": 66871, "ELEMENT_SET_NO": 999, "REV_AT_EPOCH": 357, "BSTAR": 0.0011649, "MEAN_MOTION_DOT": 0.00068374, "MEAN_MOTION_DDOT": 0}, "tle": {"line1": "1 66871U 25281Z   25360.16668980  .00068374  00000+0  11649-2 0  9996", "line2": "2 66871  43.0002  41.0281 0001032 237.2021 145.1047 15.50489077  3571"}}, "geometry": {"type": "Point", "coordinates": [55.24619767064618, 13.85418121991459]}}, {"type": "Feature", "properties": {"norad_id": 66872, "name": "STARLINK-36082", "group": "last-30-days", "lat": 15.110575211835318, "lon": 56.73821523833924, "alt_km": 413.4826455244138, "timestamp": "2025-12-26T08:37:53.292323+00:00", "meta": {"OBJECT_NAME": "STARLINK-36082", "OBJECT_ID": "2025-281AA", "EPOCH": "2025-12-26T04:00:01.998720", "MEAN_MOTION": 15.50484723, "ECCENTRICITY": 0.0001305, "INCLINATION": 43.0002, "RA_OF_ASC_NODE": 41.0231, "ARG_OF_PERICENTER": 243.972, "MEAN_ANOMALY": 140.2516, "EPHEMERIS_TYPE": 0, "CLASSIFICATION_TYPE": "U", "NORAD_CAT_ID": 66872, "ELEMENT_SET_NO": 999, "REV_AT_EPOCH": 344, "BSTAR": 0.0012022, "MEAN_MOTION_DOT": 0.00070584, "MEAN_MOTION_DDOT": 0}, "tle": {"line1": "1 66872U 25281AA  25360.16668980  .00070584  00000+0  12022-2 0  9999", "line2": "2 66872  43.0002  41.0231 0001305 243.9720 140.2516 15.50484723  3446"}}, "geometry": {"type": "Point", "coordinates": [56.73821523833924, 15.110575211835318]}}, {"type": "Feature", "properties": {"norad_id": 66873, "name": "STARLINK-36128", "group": "last-30-days", "lat": 18.811639785689078, "lon": 61.321584812455804, "alt_km": 412.9721418872923, "timestamp": "2025-12-26T08:37:53.292333+00:00", "meta": {"OBJECT_NAME": "STARLINK-36128", "OBJECT_ID": "2025-281AB", "EPOCH": "2025-12-26T04:00:01.998720", "MEAN_MOTION": 15.50484492, "ECCENTRICITY": 0.0001232, "INCLINATION": 43.0003, "RA_OF_ASC_NODE": 41.008, "ARG_OF_PERICENTER": 237.384, "MEAN_ANOMALY": 152.5859, "EPHEMERIS_TYPE": 0, "CLASSIFICATION_TYPE": "U", "NORAD_CAT_ID": 66873, "ELEMENT_SET_NO": 999, "REV_AT_EPOCH": 358, "BSTAR": 0.0012459, "MEAN_MOTION_DOT": 0.00073185, "MEAN_MOTION_DDOT": 0}, "tle": {"line1": "1 66873U 25281AB  25360.16668980  .00073185  00000+0  12459-2 0  9994", "line2": "2 66873  43.0003  41.0080 0001232 237.3840 152.5859 15.50484492  3583"}}, "geometry": {"type": "Point", "coordinates": [61.321584812455804, 18.811639785689078]}}, {"type": "Feature", "properties": {"norad_id": 66874, "name": "STARLINK-36129", "group": "last-30-days", "lat": 16.35075406157131, "lon": 58.24034551736507, "alt_km": 413.2456071558063, "timestamp": "2025-12-26T08:37:53.292343+00:00", "meta": {"OBJECT_NAME": "STARLINK-36129", "OBJECT_ID": "2025-281AC", "EPOCH": "2025-12-26T04:00:01.998720", "MEAN_MOTION": 15.50481942, "ECCENTRICITY": 0.0001175, "INCLINATION": 43.0003, "RA_OF_ASC_NODE": 41.0182, "ARG_OF_PERICENTER": 243.6286, "MEAN_ANOMALY": 142.5045, "EPHEMERIS_TYPE": 0, "CLASSIFICATION_TYPE": "U", "NORAD_CAT_ID": 66874, "ELEMENT_SET_NO": 999, "REV_AT_EPOCH": 357, "BSTAR": 0.0013294, "MEAN_MOTION_DOT": 0.0007816, "MEAN_MOTION_DDOT": 0}, "tle": {"line1": "1 66874U 25281AC  25360.16668980  .00078160  00000+0  13294-2 0  9991", "line2": "2 66874  43.0003  41.0182 0001175 243.6286 142.5045 15.50481942  3579"}}, "geometry": {"type": "Point", "coordinates": [58.24034551736507, 16.35075406157131]}}, {"type": "Feature", "properties": {"norad_id": 66875, "name": "STARLINK-36053", "group": "last-30-days", "lat": 20.02382600289911, "lon": 62.89640401234495, "alt_km": 412.78471077459744, "timestamp": "2025-12-26T08:37:53.292358+00:00", "meta": {"OBJECT_NAME": "STARLINK-36053", "OBJECT_ID": "2025-281AD", "EPOCH": "2025-12-26T04:00:01.998720", "MEAN_MOTION": 15.50485406, "ECCENTRICITY": 0.0001236, "INCLINATION": 43.0001, "RA_OF_ASC_NODE": 41.0026, "ARG_OF_PERICENTER": 238.9634, "MEAN_ANOMALY": 152.9257, "EPHEMERIS_TYPE": 0, "CLASSIFICATION_TYPE": "U", "NORAD_CAT_ID": 66875, "ELEMENT_SET_NO": 999, "REV_AT_EPOCH": 358, "BSTAR": 0.0012096, "MEAN_MOTION_DOT": 0.00071026, "MEAN_MOTION_DDOT": 0}, "tle": {"line1": "1 66875U 25281AD  25360.16668980  .00071026  00000+0  12096-2 0  9995", "line2": "2 66875  43.0001  41.0026 0001236 238.9634 152.9257 15.50485406  3587"}}, "geometry": {"type": "Point", "coordinates": [62.89640401234495, 20.02382600289911]}}, {"type": "Feature", "properties": {"norad_id": 66876, "name": "STARLINK-35702", "group": "last-30-days", "lat": 17.587668024266723, "lon": 59.77112805519212, "alt_km": 413.06207483682556, "timestamp": "2025-12-26T08:37:53.292369+00:00", "meta": {"OBJECT_NAME": "STARLINK-35702", "OBJECT_ID": "2025-281AE", "EPOCH": "2025-12-26T04:00:01.998720", "MEAN_MOTION": 15.50483455, "ECCENTRICITY": 0.0001154, "INCLINATION": 43.0003, "RA_OF_ASC_NODE": 41.0132, "ARG_OF_PERICENTER": 243.0692, "MEAN_ANOMALY": 144.9828, "EPHEMERIS_TYPE": 0, "CLASSIFICATION_TYPE": "U", "NORAD_CAT_ID": 66876, "ELEMENT_SET_NO": 999, "REV_AT_EPOCH": 357, "BSTAR": 0.0012749, "MEAN_MOTION_DOT": 0.00074914, "MEAN_MOTION_DDOT": 0}, "tle": {"line1": "1 66876U 25281AE  25360.16668980  .00074914  00000+0  12749-2 0  9990", "line2": "2 66876  43.0003  41.0132 0001154 243.0692 144.9828 15.50483455  3574"}}, "geometry": {"type": "Point", "coordinates": [59.77112805519212, 17.587668024266723]}}, {"type": "Feature", "properties": {"norad_id": 66877, "name": "ZQ-3 R/B", "group": "last-30-days", "lat": -34.029792606804214, "lon": -149.48242128861622, "alt_km": 177.308485084759, "timestamp": "2025-12-26T08:37:53.292380+00:00", "meta": {"OBJECT_NAME": "ZQ-3 R/B", "OBJECT_ID": "2025-282A", "EPOCH": "2025-12-26T02:45:15.048864", "MEAN_MOTION": 14.86848373, "ECCENTRICITY": 0.0666093, "INCLINATION": 56.9489, "RA_OF_ASC_NODE": 5.4107, "ARG_OF_PERICENTER": 243.63, "MEAN_ANOMALY": 109.489, "EPHEMERIS_TYPE": 0, "CLASSIFICATION_TYPE": "U", "NORAD_CAT_ID": 66877, "ELEMENT_SET_NO": 999, "REV_AT_EPOCH": 336, "BSTAR": 0.00016687, "MEAN_MOTION_DOT": 0.01006455, "MEAN_MOTION_DDOT": 7.9684e-06}, "tle": {"line1": "1 66877U 25282A   25360.11475751  .01006455  79684-5  16687-3 0  9991", "line2": "2 66877  56.9489   5.4107 0666093 243.6300 109.4890 14.86848373  3367"}}, "geometry": {"type": "Point", "coordinates": [-149.48242128861622, -34.029792606804214]}}, {"type": "Feature", "properties": {"norad_id": 66878, "name": "STARLINK-35866", "group": "last-30-days", "lat": -3.470428544976452, "lon": -171.31668179471177, "alt_km": 397.99364816757134, "timestamp": "2025-12-26T08:37:53.292391+00:00", "meta": {"OBJECT_NAME": "STARLINK-35866", "OBJECT_ID": "2025-283A", "EPOCH": "2025-12-26T04:00:01.998720", "MEAN_MOTION": 15.57839662, "ECCENTRICITY": 0.0001608, "INCLINATION": 53.1598, "RA_OF_ASC_NODE": 7.0115, "ARG_OF_PERICENTER": 81.8179, "MEAN_ANOMALY": 99.951, "EPHEMERIS_TYPE": 0, "CLASSIFICATION_TYPE": "U", "NORAD_CAT_ID": 66878, "ELEMENT_SET_NO": 999, "REV_AT_EPOCH": 458, "BSTAR": -0.030136, "MEAN_MOTION_DOT": -0.02004786, "MEAN_MOTION_DDOT": 0}, "tle": {"line1": "1 66878U 25283A   25360.16668980 -.02004786  00000+0 -30136-1 0  9997", "line2": "2 66878  53.1598   7.0115 0001608  81.8179  99.9510 15.57839662  4583"}}, "geometry": {"type": "Point", "coordinates": [-171.31668179471177, -3.470428544976452]}}]}